{"type": "FeatureCollection", "features": [ {"type": "Feature", "properties": {"norad_id": 31325, "name": "FENGYUN 1C DEB", "group": "fengyun-1c-debris", "lat": -40.90148527304565, "lon": -96.63279459571984, "alt_km": 797.0089512707827, "timestamp": "2025-12-22T23:36:20.995235+00:00", "meta": {"OBJECT_NAME": "FENGYUN 1C DEB", "OBJECT_ID": "1999-025BQD", "EPOCH": "2025-12-17T00:12:23.735520", "MEAN_MOTION": 14.16922892, "ECCENTRICITY": 0.00720914, "INCLINATION": 98.9915, "RA_OF_ASC_NODE": 85.2122, "ARG_OF_PERICENTER": 208.4071, "MEAN_ANOMALY": 151.3165, "EPHEMERIS_TYPE": 0, "CLASSIFICATION_TYPE": "U", "NORAD_CAT_ID": 31325, "ELEMENT_SET_NO": 999, "REV_AT_EPOCH": 59838, "BSTAR": 0.0016097339, "MEAN_MOTION_DOT": 3.269e-05, "MEAN_MOTION_DDOT": 0}, "tle": {"line1": "1 31325U 99025BQD 25351.00860805  .00003269  00000+0  16097-2 0  9996", "line2": "2 31325  98.9915  85.2122 0072091 208.4071 151.3165 14.16922892598387"}}, "geometry": {"type": "Point", "coordinates": [-96.63279459571984, -40.90148527304565]}}, {"type": "Feature", "properties": {"norad_id": 31326, "name": "FENGYUN 1C DEB", "group": "fengyun-1c-debris", "lat": 12.98642039539285, "lon": -121.57887445048155, "alt_km": 557.2831397553427, "timestamp": "2025-12-22T23:36:20.995245+00:00", "meta": {"OBJECT_NAME": "FENGYUN 1C DEB", "OBJECT_ID": "1999-025BQE", "EPOCH": "2025-12-15T15:32:28.923936", "MEAN_MOTION": 15.00424804, "ECCENTRICITY": 0.00131933, "INCLINATION": 98.9962, "RA_OF_ASC_NODE": 232.0333, "ARG_OF_PERICENTER": 356.0949, "MEAN_ANOMALY": 4.0165, "EPHEMERIS_TYPE": 0, "CLASSIFICATION_TYPE": "U", "NORAD_CAT_ID": 31326, "ELEMENT_SET_NO": 999, "REV_AT_EPOCH": 73789, "BSTAR": 0.0045407433, "MEAN_MOTION_DOT": 0.00057569, "MEAN_MOTION_DDOT": 0}, "tle": {"line1": "1 31326U 99025BQE 25349.64755699  .00057569  00000+0  45407-2 0  9997", "line2": "2 31326  98.9962 232.0333 0013193 356.0949   4.0165 15.00424804737897"}}, "geometry": {"type": "Point", "coordinates": [-121.57887445048155, 12.98642039539285]}}, {"type": "Feature", "properties": {"norad_id": 31327, "name": "FENGYUN 1C DEB", "group": "fengyun-1c-debris", "lat": -28.57547722972829, "lon": 175.1978401517808, "alt_km": 573.1427110373697, "timestamp": "2025-12-22T23:36:20.995255+00:00", "meta": {"OBJECT_NAME": "FENGYUN 1C DEB", "OBJECT_ID": "1999-025BQF", "EPOCH": "2025-12-22T06:47:26.536128", "MEAN_MOTION": 15.11384223, "ECCENTRICITY": 0.00849563, "INCLINATION": 98.9835, "RA_OF_ASC_NODE": 359.3185, "ARG_OF_PERICENTER": 338.6786, "MEAN_ANOMALY": 21.0907, "EPHEMERIS_TYPE": 0, "CLASSIFICATION_TYPE": "U", "NORAD_CAT_ID": 31327, "ELEMENT_SET_NO": 999, "REV_AT_EPOCH": 243, "BSTAR": 0.0016972321, "MEAN_MOTION_DOT": 0.00031274, "MEAN_MOTION_DDOT": 0}, "tle": {"line1": "1 31327U 99025BQF 25356.28294602  .00031274  00000+0  16972-2 0  9998", "line2": "2 31327  98.9835 359.3185 0084956 338.6786  21.0907 15.11384223  2435"}}, "geometry": {"type": "Point", "coordinates": [175.1978401517808, -28.57547722972829]}}, {"type": "Feature", "properties": {"norad_id": 31328, "name": "FENGYUN 1C DEB", "group": "fengyun-1c-debris", "lat": -47.230817163233844, "lon": 141.18891040939346, "alt_km": 745.8922783437347, "timestamp": "2025-12-22T23:36:20.995266+00:00", "meta": {"OBJECT_NAME": "FENGYUN 1C DEB", "OBJECT_ID": "1999-025BQG", "EPOCH": "2025-12-21T16:17:46.346496", "MEAN_MOTION": 14.28948209, "ECCENTRICITY": 0.01040839, "INCLINATION": 98.4844, "RA_OF_ASC_NODE": 329.2058, "ARG_OF_PERICENTER": 190.0117, "MEAN_ANOMALY": 169.8993, "EPHEMERIS_TYPE": 0, "CLASSIFICATION_TYPE": "U", "NORAD_CAT_ID": 31328, "ELEMENT_SET_NO": 999, "REV_AT_EPOCH": 97590, "BSTAR": 5.4835271e-05, "MEAN_MOTION_DOT": 1.04e-06, "MEAN_MOTION_DDOT": 0}, "tle": {"line1": "1 31328U 99025BQG 25355.67900864  .00000104  00000+0  54835-4 0  9995", "line2": "2 31328  98.4844 329.2058 0104083 190.0117 169.8993 14.28948209975902"}}, "geometry": {"type": "Point", "coordinates": [141.18891040939346, -47.230817163233844]}}, {"type": "Feature", "properties": {"norad_id": 31330, "name": "FENGYUN 1C DEB", "group": "fengyun-1c-debris", "lat": 6.073414956701457, "lon": -15.959483325545335, "alt_km": 526.7174731102241, "timestamp": "2025-12-22T23:36:20.995276+00:00", "meta": {"OBJECT_NAME": "FENGYUN 1C DEB", "OBJECT_ID": "1999-025BQJ", "EPOCH": "2025-12-22T10:23:05.984160", "MEAN_MOTION": 15.13483918, "ECCENTRICITY": 0.00015579, "INCLINATION": 98.8822, "RA_OF_ASC_NODE": 162.4457, "ARG_OF_PERICENTER": 241.118, "MEAN_ANOMALY": 172.8251, "EPHEMERIS_TYPE": 0, "CLASSIFICATION_TYPE": "U", "NORAD_CAT_ID": 31330, "ELEMENT_SET_NO": 999, "REV_AT_EPOCH": 97276, "BSTAR": 0.010683231, "MEAN_MOTION_DOT": 0.00196266, "MEAN_MOTION_DDOT": 0}, "tle": {"line1": "1 31330U 99025BQJ 25356.43270815  .00196266  00000+0  10683-1 0  9994", "line2": "2 31330  98.8822 162.4457 0001557 241.1180 172.8251 15.13483918972763"}}, "geometry": {"type": "Point", "coordinates": [-15.959483325545335, 6.073414956701457]}}, {"type": "Feature", "properties": {"norad_id": 31331, "name": "FENGYUN 1C DEB", "group": "fengyun-1c-debris", "lat": -63.15758067782394, "lon": -175.4620210447911, "alt_km": 898.8222450322382, "timestamp": "2025-12-22T23:36:20.995286+00:00", "meta": {"OBJECT_NAME": "FENGYUN 1C DEB", "OBJECT_ID": "1999-025BQK", "EPOCH": "2025-12-19T07:00:29.877408", "MEAN_MOTION": 14.00628517, "ECCENTRICITY": 0.0053435, "INCLINATION": 98.8725, "RA_OF_ASC_NODE": 18.9328, "ARG_OF_PERICENTER": 164.3513, "MEAN_ANOMALY": 195.9319, "EPHEMERIS_TYPE": 0, "CLASSIFICATION_TYPE": "U", "NORAD_CAT_ID": 31331, "ELEMENT_SET_NO": 999, "REV_AT_EPOCH": 63948, "BSTAR": 0.00038925, "MEAN_MOTION_DOT": 5.44e-06, "MEAN_MOTION_DDOT": 0}, "tle": {"line1": "1 31331U 99025BQK 25353.29201247  .00000544  00000+0  38925-3 0  9993", "line2": "2 31331  98.8725  18.9328 0053435 164.3513 195.9319 14.00628517639487"}}, "geometry": {"type": "Point", "coordinates": [-175.4620210447911, -63.15758067782394]}}, {"type": "Feature", "properties": {"norad_id": 31332, "name": "FENGYUN 1C DEB", "group": "fengyun-1c-debris", "lat": 62.51067537980666, "lon": -155.85657631773458, "alt_km": 864.6918129759833, "timestamp": "2025-12-22T23:36:20.995297+00:00", "meta": {"OBJECT_NAME": "FENGYUN 1C DEB", "OBJECT_ID": "1999-025BQL", "EPOCH": "2025-12-22T06:39:47.949120", "MEAN_MOTION": 14.11872715, "ECCENTRICITY": 0.00496023, "INCLINATION": 98.7056, "RA_OF_ASC_NODE": 6.3329, "ARG_OF_PERICENTER": 358.0402, "MEAN_ANOMALY": 131.4987, "EPHEMERIS_TYPE": 0, "CLASSIFICATION_TYPE": "U", "NORAD_CAT_ID": 31332, "ELEMENT_SET_NO": 999, "REV_AT_EPOCH": 96106, "BSTAR": 0.00082426805, "MEAN_MOTION_DOT": 1.48e-05, "MEAN_MOTION_DDOT": 0}, "tle": {"line1": "1 31332U 99025BQL 25356.27763830  .00001480  00000+0  82427-3 0  9992", "line2": "2 31332  98.7056   6.3329 0049602 358.0402 131.4987 14.11872715961067"}}, "geometry": {"type": "Point", "coordinates": [-155.85657631773458, 62.51067537980666]}}, {"type": "Feature", "properties": {"norad_id": 31333, "name": "FENGYUN 1C DEB", "group": "fengyun-1c-debris", "lat": 27.578869818091558, "lon": -164.38005860028565, "alt_km": 866.1507731098864, "timestamp": "2025-12-22T23:36:20.995307+00:00", "meta": {"OBJECT_NAME": "FENGYUN 1C DEB", "OBJECT_ID": "1999-025BQM", "EPOCH": "2025-12-20T18:42:54.770112", "MEAN_MOTION": 14.26566831, "ECCENTRICITY": 0.00982731, "INCLINATION": 98.4277, "RA_OF_ASC_NODE": 9.0567, "ARG_OF_PERICENTER": 2.9268, "MEAN_ANOMALY": 357.2467, "EPHEMERIS_TYPE": 0, "CLASSIFICATION_TYPE": "U", "NORAD_CAT_ID": 31333, "ELEMENT_SET_NO": 999, "REV_AT_EPOCH": 96706, "BSTAR": 0.00048897512, "MEAN_MOTION_DOT": 1.199e-05, "MEAN_MOTION_DDOT": 0}, "tle": {"line1": "1 31333U 99025BQM 25354.77980058  .00001199  00000+0  48898-3 0  9990", "line2": "2 31333  98.4277   9.0567 0098273   2.9268 357.2467 14.26566831967069"}}, "geometry": {"type": "Point", "coordinates": [-164.38005860028565, 27.578869818091558]}}, {"type": "Feature", "properties": {"norad_id": 31336, "name": "FENGYUN 1C DEB", "group": "fengyun-1c-debris", "lat": -15.471742901996612, "lon": 54.434010487058295, "alt_km": 782.9105387190457, "timestamp": "2025-12-22T23:36:20.995317+00:00", "meta": {"OBJECT_NAME": "FENGYUN 1C DEB", "OBJECT_ID": "1999-025BQQ", "EPOCH": "2025-12-22T10:23:35.729952", "MEAN_MOTION": 14.38719695, "ECCENTRICITY": 0.00940279, "INCLINATION": 98.4633, "RA_OF_ASC_NODE": 51.5291, "ARG_OF_PERICENTER": 89.9469, "MEAN_ANOMALY": 285.8393, "EPHEMERIS_TYPE": 0, "CLASSIFICATION_TYPE": "U", "NORAD_CAT_ID": 31336, "ELEMENT_SET_NO": 999, "REV_AT_EPOCH": 97930, "BSTAR": 0.00027821112, "MEAN_MOTION_DOT": 8.54e-06, "MEAN_MOTION_DDOT": 0}, "tle": {"line1": "1 31336U 99025BQQ 25356.43305243  .00000854  00000+0  27821-3 0  9995", "line2": "2 31336  98.4633  51.5291 0094027  89.9469 285.8393 14.38719695979300"}}, "geometry": {"type": "Point", "coordinates": [54.434010487058295, -15.471742901996612]}}, {"type": "Feature", "properties": {"norad_id": 31338, "name": "FENGYUN 1C DEB", "group": "fengyun-1c-debris", "lat": -20.145564188235753, "lon": -159.91850710169214, "alt_km": 835.9146758126935, "timestamp": "2025-12-22T23:36:20.995327+00:00", "meta": {"OBJECT_NAME": "FENGYUN 1C DEB", "OBJECT_ID": "1999-025BQS", "EPOCH": "2025-12-21T07:08:18.738240", "MEAN_MOTION": 14.20804956, "ECCENTRICITY": 0.007196, "INCLINATION": 98.7165, "RA_OF_ASC_NODE": 195.1923, "ARG_OF_PERICENTER": 84.0932, "MEAN_ANOMALY": 276.8441, "EPHEMERIS_TYPE": 0, "CLASSIFICATION_TYPE": "U", "NORAD_CAT_ID": 31338, "ELEMENT_SET_NO": 999, "REV_AT_EPOCH": 63779, "BSTAR": 0.0018605, "MEAN_MOTION_DOT": 4.083e-05, "MEAN_MOTION_DDOT": 0}, "tle": {"line1": "1 31338U 99025BQS 25355.29743910  .00004083  00000+0  18605-2 0  9994", "line2": "2 31338  98.7165 195.1923 0071960  84.0932 276.8441 14.20804956637798"}}, "geometry": {"type": "Point", "coordinates": [-159.91850710169214, -20.145564188235753]}}]}